ONEWEB-0683             
1 56719U 23068K   24361.71037785  .00000218  00000+0  54436-3 0  9996
2 56719  87.9064   6.1881 0002018  94.9521 265.1840 13.15550797 78755
ONEWEB-0684             
1 56720U 23068L   24361.56618969  .00000132  00000+0  31587-3 0  9997
2 56720  87.9040   6.2780 0000728 149.5051 210.6122 13.15548988 78567
ONEWEB-0686             
1 56721U 23068M   24362.17317081  .00000081  00000+0  17856-3 0  9993
2 56721  87.9086 335.8103 0001816  96.6920 263.4418 13.16595976 81753
ONEWEB-0694             
1 56722U 23068N   24362.36789277 -.00001333  00000+0 -35218-2 0  9999
2 56722  87.9081 335.6911 0002308  90.1156 270.0240 13.16597195 81832
ONEWEB-0696             
1 56723U 23068P   24361.75158133  .00000037  00000+0  63386-4 0  9990
2 56723  87.9063   6.2312 0001449  88.8220 271.3076 13.15550291 78708
ONEWEB-0703             
1 56724U 23068Q   24361.53291176  .00000068  00000+0  14569-3 0  9994
2 56724  87.9064   6.2947 0001110  48.9899 311.1327 13.15550905 79264
ONEWEB-0721             
1 56725U 23068R   24361.91667824 -.00821153  00000+0 -73219+0 0  9995
2 56725  86.6761 257.7894 0007708 328.8177 243.1796 13.87752223  5480
ONEWEB-0015             
1 61594U 24188A   24361.86096804  .00005727  00000+0  70090-3 0  9994
2 61594  86.5756 141.4631 0004890   9.8996 350.2322 14.83051352 12996
